[{"OBJECT_NAME":"NAPA-2","OBJECT_ID":"2021-059CN","EPOCH":"2026-03-09T23:29:49.102656","MEAN_MOTION":15.70952391,"ECCENTRICITY":0.00036606,"INCLINATION":97.6849,"RA_OF_ASC_NODE":256.4978,"ARG_OF_PERICENTER":316.466,"MEAN_ANOMALY":43.6312,"EPHEMERIS_TYPE":0,"CLASSIFICATION_TYPE":"U","NORAD_CAT_ID":48963,"ELEMENT_SET_NO":999,"REV_AT_EPOCH":26212,"BSTAR":0.00074486022,"MEAN_MOTION_DOT":0.00093758,"MEAN_MOTION_DDOT":0},{"OBJECT_NAME":"STARLINK-11558 [DTC]","OBJECT_ID":"2025-035D","EPOCH":"2026-03-08T23:26:35.267712","MEAN_MOTION":15.70880019,"ECCENTRICITY":0.00017434,"INCLINATION":42.9998,"RA_OF_ASC_NODE":19.2028,"ARG_OF_PERICENTER":246.3661,"MEAN_ANOMALY":113.7024,"EPHEMERIS_TYPE":0,"CLASSIFICATION_TYPE":"U","NORAD_CAT_ID":63055,"ELEMENT_SET_NO":999,"REV_AT_EPOCH":6100,"BSTAR":0.0010869442,"MEAN_MOTION_DOT":0.00141662,"MEAN_MOTION_DDOT":0}]
